NORAD_CAT_ID,OBJECT_NAME,OBJECT_TYPE,EPOCH,MEAN_MOTION,ECCENTRICITY,INCLINATION,RA_OF_ASC_NODE,ARG_OF_PERICENTER,MEAN_ANOMALY,BSTAR,MEAN_MOTION_DOT,MEAN_MOTION_DDOT,TLE_LINE0,TLE_LINE1,TLE_LINE2,SEMIMAJOR_AXIS,PERIOD,APOGEE,PERIGEE,DECAYED
52855.0,STARLINK-4209,PAYLOAD,2023-05-31 09:56:15,15.08884065,0.0001098,53.2164,252.8932,74.0638,286.0476,-0.00041513,-6.897e-05,0.0,0 STARLINK-4209,1 52855U 22062AB  23151.41407397 -.00006897  00000-0 -41513-3 0  9993,2 52855  53.2164 252.8932 0001098  74.0638 286.0476 15.08884065 53449,6917.746,95.435,540.37,538.851,0.0
52855.0,STARLINK-4209,PAYLOAD,2023-05-31 13:07:02,15.08850799,7.81e-05,53.216,252.2988,79.4405,280.6675,0.00012293,1.67e-05,0.0,0 STARLINK-4209,1 52855U 22062AB  23151.54656148  .00001670  00000-0  12293-3 0  9992,2 52855  53.2160 252.2988 0000781  79.4405 280.6675 15.08850799 52974,6917.847,95.437,540.253,539.172,0.0
52855.0,STARLINK-4209,PAYLOAD,2023-06-01 09:47:04,15.08833329,7.8e-05,53.2159,248.4336,76.7401,283.3678,6.4734e-05,7.43e-06,0.0,0 STARLINK-4209,1 52855U 22062AB  23152.40769285  .00000743  00000-0  64734-4 0  9993,2 52855  53.2159 248.4336 0000780  76.7401 283.3678 15.08833329 53100,6917.901,95.438,540.305,539.226,0.0
52855.0,STARLINK-4209,PAYLOAD,2023-06-02 12:48:37,15.08855211,0.0001278,53.2163,243.3762,120.871,239.2408,-0.00030569,-5.152e-05,0.0,0 STARLINK-4209,1 52855U 22062AB  23153.53377053 -.00005152  00000-0 -30569-3 0  9995,2 52855  53.2163 243.3762 0001278 120.8710 239.2408 15.08855211 53766,6917.834,95.437,540.583,538.815,0.0
52855.0,STARLINK-4209,PAYLOAD,2023-06-03 12:39:23,15.08852882,5.98e-05,53.2158,238.9126,93.3908,266.7152,9.8876e-05,1.287e-05,0.0,0 STARLINK-4209,1 52855U 22062AB  23154.52735777  .00001287  00000-0  98876-4 0  9995,2 52855  53.2158 238.9126 0000598  93.3908 266.7152 15.08852882 53426,6917.841,95.437,540.12,539.292,0.0
52855.0,STARLINK-4209,PAYLOAD,2023-06-03 22:11:43,15.08841491,8.89e-05,53.2162,237.1326,77.0414,283.0677,9.5493e-05,1.232e-05,0.0,0 STARLINK-4209,1 52855U 22062AB  23154.92480484  .00001232  00000-0  95493-4 0  9993,2 52855  53.2162 237.1326 0000889  77.0414 283.0677 15.08841491 53976,6917.876,95.437,540.356,539.126,0.0
52855.0,STARLINK-4209,PAYLOAD,2023-06-04 09:19:25,15.08850089,0.000188,53.2176,235.0656,132.5293,227.5858,-0.00026772,-4.548e-05,0.0,0 STARLINK-4209,1 52855U 22062AB  23155.38849454 -.00004548  00000-0 -26772-3 0  9998,2 52855  53.2176 235.0656 0001880 132.5293 227.5858 15.08850089 54044,6917.85,95.437,541.015,538.414,0.0
52855.0,STARLINK-4209,PAYLOAD,2023-06-04 10:54:50,15.08820484,7.74e-05,53.2159,234.7503,45.5403,314.5653,-6.5674e-05,-1.332e-05,0.0,0 STARLINK-4209,1 52855U 22062AB  23155.45474626 -.00001332  00000-0 -65674-4 0  9994,2 52855  53.2159 234.7503 0000774  45.5403 314.5653 15.08820484 53561,6917.94,95.439,540.34,539.27,0.0
52855.0,STARLINK-4209,PAYLOAD,2023-06-04 15:40:59,15.08823436,7.71e-05,53.2161,233.8584,58.0178,302.0889,-3.9893e-05,-9.22e-06,0.0,0 STARLINK-4209,1 52855U 22062AB  23155.65346553 -.00000922  00000-0 -39893-4 0  9991,2 52855  53.2161 233.8584 0000771  58.0178 302.0889 15.08823436 54089,6917.931,95.439,540.329,539.263,0.0
52855.0,STARLINK-4209,PAYLOAD,2023-06-04 23:37:54,15.0883325,7.61e-05,53.2164,232.3778,93.2956,266.8123,-4.5259e-05,-1.008e-05,0.0,0 STARLINK-4209,1 52855U 22062AB  23155.98466066 -.00001008  00000-0 -45259-4 0  9998,2 52855  53.2164 232.3778 0000761  93.2956 266.8123 15.08833250 54134,6917.901,95.438,540.292,539.24,0.0
52855.0,STARLINK-4209,PAYLOAD,2023-06-05 10:45:35,15.08850072,6.14e-05,53.2154,230.2934,60.9019,299.2034,4.147e-07,-2.81e-06,0.0,0 STARLINK-4209,1 52855U 22062AB  23156.44832866 -.00000281  00000-0  41470-6 0  9999,2 52855  53.2154 230.2934 0000614  60.9019 299.2034 15.08850072 54202,6917.85,95.437,540.139,539.29,0.0
52855.0,STARLINK-4209,PAYLOAD,2023-06-05 13:56:21,15.08853648,6.46e-05,53.2153,229.6986,55.5943,304.511,4.1852e-05,3.79e-06,0.0,0 STARLINK-4209,1 52855U 22062AB  23156.58080569  .00000379  00000-0  41852-4 0  9998,2 52855  53.2153 229.6986 0000646  55.5943 304.5110 15.08853648 53735,6917.839,95.437,540.151,539.257,0.0
52855.0,STARLINK-4209,PAYLOAD,2023-06-05 23:28:41,15.088375,0.0001222,53.2142,227.9172,47.9827,312.1269,6.4009e-05,7.31e-06,0.0,0 STARLINK-4209,1 52855U 22062AB  23156.97825497  .00000731  00000-0  64009-4 0  9999,2 52855  53.2142 227.9172 0001222  47.9827 312.1269 15.08837500 54288,6917.888,95.438,540.598,538.908,0.0
52855.0,STARLINK-4209,PAYLOAD,2023-06-06 09:01:00,15.08827369,8.22e-05,53.2153,226.1303,53.2857,306.8211,0.00015733,2.216e-05,0.0,0 STARLINK-4209,1 52855U 22062AB  23157.37570214  .00002216  00000-0  15733-3 0  9997,2 52855  53.2153 226.1303 0000822  53.2857 306.8211 15.08827369 54341,6917.919,95.438,540.353,539.215,0.0
52855.0,STARLINK-4209,PAYLOAD,2023-06-06 12:11:46,15.08832347,8.22e-05,53.2153,225.5355,57.8693,302.2379,0.00012179,1.651e-05,0.0,0 STARLINK-4209,1 52855U 22062AB  23157.50818100  .00001651  00000-0  12179-3 0  9994,2 52855  53.2153 225.5355 0000822  57.8693 302.2379 15.08832347 53873,6917.904,95.438,540.337,539.2,0.0
52855.0,STARLINK-4209,PAYLOAD,2023-06-07 04:05:38,15.08838864,7.84e-05,53.2155,222.5626,53.9691,306.1374,0.00011024,1.467e-05,0.0,0 STARLINK-4209,1 52855U 22062AB  23158.17057936  .00001467  00000-0  11024-3 0  9993,2 52855  53.2155 222.5626 0000784  53.9691 306.1374 15.08838864 54469,6917.884,95.438,540.291,539.206,0.0
52855.0,STARLINK-4209,PAYLOAD,2023-06-07 08:51:47,15.08845413,8.3e-05,53.2155,221.6707,55.2815,304.8255,9.1955e-05,1.176e-05,0.0,0 STARLINK-4209,1 52855U 22062AB  23158.36929580  .00001176  00000-0  91955-4 0  9996,2 52855  53.2155 221.6707 0000830  55.2815 304.8255 15.08845413 54005,6917.864,95.437,540.303,539.155,0.0
52855.0,STARLINK-4209,PAYLOAD,2023-06-08 08:42:34,15.08839475,8.96e-05,53.2153,217.2102,57.8747,302.2332,0.00015195,2.131e-05,0.0,0 STARLINK-4209,1 52855U 22062AB  23159.36289829  .00002131  00000-0  15195-3 0  9995,2 52855  53.2153 217.2102 0000896  57.8747 302.2332 15.08839475 54646,6917.882,95.438,540.367,539.127,0.0
52855.0,STARLINK-4209,PAYLOAD,2023-06-08 13:28:43,15.0884389,7.92e-05,53.2152,216.3177,65.9979,294.1096,0.00014924,2.089e-05,0.0,0 STARLINK-4209,1 52855U 22062AB  23159.56161522  .00002089  00000-0  14924-3 0  9997,2 52855  53.2152 216.3177 0000792  65.9979 294.1096 15.08843890 54180,6917.868,95.437,540.281,539.186,0.0
52855.0,STARLINK-4209,PAYLOAD,2023-06-09 10:08:44,15.08835962,8.03e-05,53.2147,212.4515,65.2448,294.8628,0.00013681,1.89e-05,0.0,0 STARLINK-4209,1 52855U 22062AB  23160.42274025  .00001890  00000-0  13681-3 0  9995,2 52855  53.2147 212.4515 0000803  65.2448 294.8628 15.08835962 54802,6917.893,95.438,540.313,539.202,0.0
52855.0,STARLINK-4209,PAYLOAD,2023-06-10 09:59:31,15.08837376,8.67e-05,53.2151,207.9908,66.2515,293.8568,1.4256e-05,-6.1e-07,0.0,0 STARLINK-4209,1 52855U 22062AB  23161.41634144 -.00000061  00000-0  14256-4 0  9997,2 52855  53.2151 207.9908 0000867  66.2515 293.8568 15.08837376 54463,6917.888,95.438,540.353,539.154,0.0
52855.0,STARLINK-4209,PAYLOAD,2023-06-10 19:31:50,15.08838786,8.81e-05,53.215,206.2066,65.1589,294.9495,2.4414e-05,1.01e-06,0.0,0 STARLINK-4209,1 52855U 22062AB  23161.81378079  .00000101  00000-0  24414-4 0  9994,2 52855  53.2150 206.2066 0000881  65.1589 294.9495 15.08838786 54528,6917.884,95.438,540.359,539.14,0.0
52855.0,STARLINK-4209,PAYLOAD,2023-06-11 00:18:00,15.08836635,8.69e-05,53.2151,205.3147,63.689,296.4191,6.025e-05,6.71e-06,0.0,0 STARLINK-4209,1 52855U 22062AB  23162.01250157  .00000671  00000-0  60250-4 0  9993,2 52855  53.2151 205.3147 0000869  63.6890 296.4191 15.08836635 55042,6917.891,95.438,540.357,539.155,0.0
52855.0,STARLINK-4209,PAYLOAD,2023-06-11 09:50:18,15.08840849,8.84e-05,53.215,203.5309,62.0191,298.0891,7.5226e-05,9.1e-06,0.0,0 STARLINK-4209,1 52855U 22062AB  23162.40993921  .00000910  00000-0  75226-4 0  9994,2 52855  53.2150 203.5309 0000884  62.0191 298.0891 15.08840849 54614,6917.878,95.438,540.354,539.131,0.0
52855.0,STARLINK-4209,PAYLOAD,2023-06-11 19:22:37,15.0883859,9.11e-05,53.215,201.7471,59.5273,300.5809,5.4684e-05,5.83e-06,0.0,0 STARLINK-4209,1 52855U 22062AB  23162.80738168  .00000583  00000-0  54684-4 0  9999,2 52855  53.2150 201.7471 0000911  59.5273 300.5809 15.08838590 54671,6917.885,95.438,540.38,539.119,0.0
52855.0,STARLINK-4209,PAYLOAD,2023-06-12 09:41:06,15.08835595,8.79e-05,53.2149,199.0709,65.768,294.3404,7.1562e-05,8.51e-06,0.0,0 STARLINK-4209,1 52855U 22062AB  23163.40354454  .00000851  00000-0  71562-4 0  9990,2 52855  53.2149 199.0709 0000879  65.7680 294.3404 15.08835595 55254,6917.894,95.438,540.367,539.151,0.0
52855.0,STARLINK-4209,PAYLOAD,2023-06-12 19:13:25,15.08836846,8.96e-05,53.2148,197.2867,66.2057,293.9029,5.1706e-05,5.35e-06,0.0,0 STARLINK-4209,1 52855U 22062AB  23163.80098535  .00000535  00000-0  51706-4 0  9996,2 52855  53.2148 197.2867 0000896  66.2057 293.9029 15.08836846 54821,6917.89,95.438,540.375,539.135,0.0
52855.0,STARLINK-4209,PAYLOAD,2023-06-14 01:25:44,15.08839745,9.52e-05,53.2151,191.636,71.115,288.9945,7.5761e-05,9.18e-06,0.0,0 STARLINK-4209,1 52855U 22062AB  23165.05954448  .00000918  00000-0  75761-4 0  9991,2 52855  53.2151 191.6360 0000952  71.1150 288.9945 15.08839745 55501,6917.881,95.438,540.405,539.088,0.0
52855.0,STARLINK-4209,PAYLOAD,2023-06-14 03:01:07,15.08839021,9.48e-05,53.2151,191.3385,71.3352,288.7743,7.0601e-05,8.36e-06,0.0,0 STARLINK-4209,1 52855U 22062AB  23165.12578538  .00000836  00000-0  70601-4 0  9998,2 52855  53.2151 191.3385 0000948  71.3352 288.7743 15.08839021 55024,6917.883,95.438,540.404,539.093,0.0
52855.0,STARLINK-4209,PAYLOAD,2023-06-14 18:54:59,15.08839679,9.56e-05,53.2152,188.3646,69.823,290.2865,6.6239e-05,7.67e-06,0.0,0 STARLINK-4209,1 52855U 22062AB  23165.78818530  .00000767  00000-0  66239-4 0  9994,2 52855  53.2152 188.3646 0000956  69.8230 290.2865 15.08839679 55120,6917.881,95.438,540.408,539.085,0.0
